IRIDIUM 156             
1 43576U 18061H   26183.60604632  .00000204  00000+0  65666-4 0  9996
2 43576  86.3944  50.2808 0002038  88.0557 272.0873 14.34219288415584
IRIDIUM 164             
1 43577U 18061J   26183.86609338  .00000017  00000+0 -82720-6 0  9998
2 43577  86.3946  50.2124 0002146  89.6659 270.4783 14.34217619415665
IRIDIUM 159             
1 43578U 18061K   26183.34600108  .00000040  00000+0  71396-5 0  9999
2 43578  86.3946  50.3666 0002217  84.8141 275.3308 14.34217774415557
IRIDIUM 180             
1 43922U 19002A   26183.83387659  .00000003  00000+0 -59793-5 0  9992
2 43922  86.3974 347.0558 0002123  89.7216 270.4223 14.34217517391235
IRIDIUM 176             
1 43923U 19002B   26183.72362690  .00000897  00000+0  13841-3 0  9991
2 43923  86.6100 347.0429 0002377  88.1548 271.9942 14.72235550401537
IRIDIUM 168             
1 43924U 19002C   26183.82752969  .00000139  00000+0  42540-4 0  9993
2 43924  86.3984 347.1360 0002218  90.1014 270.0436 14.34218204391211
IRIDIUM 173             
1 43925U 19002D   26183.81484891  .00000004  00000+0 -57092-5 0  9990
2 43925  86.3974 347.0298 0002032  89.6684 270.4745 14.34217486391195
IRIDIUM 169             
1 43926U 19002E   26183.83273043  .00000327  00000+0  10032-3 0  9996
2 43926  86.4218  18.6506 0001636  89.7293 270.4092 14.38611094392471
IRIDIUM 172             
1 43927U 19002F   26183.45966382  .00000075  00000+0  19837-4 0  9993
2 43927  86.3978 347.1860 0002220  89.3387 270.8063 14.34217648391156
IRIDIUM 175             
1 43928U 19002G   26183.73302281  .00000384  00000+0  10752-3 0  9996
2 43928  86.4519 284.0229 0004365 140.7149 219.4370 14.43621622401228
IRIDIUM 171             
1 43929U 19002H   26183.71970992  .00000030  00000+0  37269-5 0  9997
2 43929  86.3987 347.3850 0002141  94.1062 266.0379 14.34217740391188
IRIDIUM 170             
1 43930U 19002J   26183.72980170  .00000897  00000+0  13833-3 0  9999
2 43930  86.6099 347.0426 0002421  84.8396 275.3097 14.72236070401541
IRIDIUM 167             
1 43931U 19002K   26183.85290378  .00000048  00000+0  10006-4 0  9996
2 43931  86.3980 347.0440 0002068  98.4813 261.6618 14.34217929391204
IRIDIUM 181             
1 56726U 23068S   26183.15092681  .00000342  00000+0  95510-4 0  9999
2 56726  86.4484  50.5342 0002437  86.2138 273.9341 14.43314274164592
IRIDIUM 177             
1 56727U 23068T   26183.80420889  .00001270  00000+0  16454-3 0  9997
2 56727  86.1978 321.3754 0002061  91.7695 268.3761 14.80012520168673
IRIDIUM 174             
1 56728U 23068U   26183.85336566  .00000969  00000+0  14982-3 0  9999
2 56728  86.6107 347.1399 0002225  80.2956 279.8512 14.72244593168320
IRIDIUM 178             
1 56729U 23068V   26183.25227976  .00001144  00000+0  14776-3 0  9995
2 56729  86.6532  19.0630 0002488  85.4914 274.6592 14.80047592168597
IRIDIUM 179             
1 56730U 23068W   26183.85546416  .00001167  00000+0  15075-3 0  9994
2 56730  86.6765  27.8373 0002431  87.6414 272.5086 14.80066222168681
