OBJECT_NAME,OBJECT_ID,EPOCH,MEAN_MOTION,ECCENTRICITY,INCLINATION,RA_OF_ASC_NODE,ARG_OF_PERICENTER,MEAN_ANOMALY,EPHEMERIS_TYPE,CLASSIFICATION_TYPE,NORAD_CAT_ID,ELEMENT_SET_NO,REV_AT_EPOCH,BSTAR,MEAN_MOTION_DOT,MEAN_MOTION_DDOT
IRIDIUM 156,2018-061H,2026-07-02T14:32:42.402048,14.34219288,.0002038,86.3944,50.2808,88.0557,272.0873,0,U,43576,999,41558,.65666E-4,.204E-5,0
IRIDIUM 164,2018-061J,2026-07-02T20:47:10.468032,14.34217619,.0002146,86.3946,50.2124,89.6659,270.4783,0,U,43577,999,41566,-.8272E-6,.17E-6,0
IRIDIUM 159,2018-061K,2026-07-02T08:18:14.493312,14.34217774,.0002217,86.3946,50.3666,84.8141,275.3308,0,U,43578,999,41555,.71396E-5,.4E-6,0
IRIDIUM 180,2019-002A,2026-07-02T20:00:46.937376,14.34217517,.0002123,86.3974,347.0558,89.7216,270.4223,0,U,43922,999,39123,-.59793E-5,.3E-7,0
IRIDIUM 176,2019-002B,2026-07-02T17:22:01.364160,14.72235550,.0002377,86.6100,347.0429,88.1548,271.9942,0,U,43923,999,40153,.13841E-3,.897E-5,0
IRIDIUM 168,2019-002C,2026-07-02T19:51:38.565216,14.34218204,.0002218,86.3984,347.1360,90.1014,270.0436,0,U,43924,999,39121,.4254E-4,.139E-5,0
IRIDIUM 173,2019-002D,2026-07-02T19:33:22.945824,14.34217486,.0002032,86.3974,347.0298,89.6684,270.4745,0,U,43925,999,39119,-.57092E-5,.4E-7,0
IRIDIUM 169,2019-002E,2026-07-02T19:59:07.909152,14.38611094,.0001636,86.4218,18.6506,89.7293,270.4092,0,U,43926,999,39247,.10032E-3,.327E-5,0
IRIDIUM 172,2019-002F,2026-07-02T11:01:54.954048,14.34217648,.000222,86.3978,347.1860,89.3387,270.8063,0,U,43927,999,39115,.19837E-4,.75E-6,0
IRIDIUM 175,2019-002G,2026-07-02T17:35:33.170784,14.43621622,.0004365,86.4519,284.0229,140.7149,219.4370,0,U,43928,999,40122,.10752E-3,.384E-5,0
IRIDIUM 171,2019-002H,2026-07-02T17:16:22.937088,14.34217740,.0002141,86.3987,347.3850,94.1062,266.0379,0,U,43929,999,39118,.37269E-5,.3E-6,0
IRIDIUM 170,2019-002J,2026-07-02T17:30:54.866880,14.72236070,.0002421,86.6099,347.0426,84.8396,275.3097,0,U,43930,999,40154,.13833E-3,.897E-5,0
IRIDIUM 167,2019-002K,2026-07-02T20:28:10.886592,14.34217929,.0002068,86.3980,347.0440,98.4813,261.6618,0,U,43931,999,39120,.10006E-4,.48E-6,0
IRIDIUM 181,2023-068S,2026-07-02T03:37:20.076384,14.43314274,.00024377,86.4484,50.5342,86.2138,273.9341,0,U,56726,999,16459,.95509739E-4,.342E-5,0
IRIDIUM 177,2023-068T,2026-07-02T19:18:03.648096,14.80012520,.0002061,86.1978,321.3754,91.7695,268.3761,0,U,56727,999,16867,.16454E-3,.127E-4,0
IRIDIUM 174,2023-068U,2026-07-02T20:28:50.793024,14.72244593,.0002225,86.6107,347.1399,80.2956,279.8512,0,U,56728,999,16832,.14982E-3,.969E-5,0
IRIDIUM 178,2023-068V,2026-07-02T06:03:16.971264,14.80047592,.0002488,86.6532,19.0630,85.4914,274.6592,0,U,56729,999,16859,.14776E-3,.1144E-4,0
IRIDIUM 179,2023-068W,2026-07-02T20:31:52.103424,14.80066222,.0002431,86.6765,27.8373,87.6414,272.5086,0,U,56730,999,16868,.15075E-3,.1167E-4,0
